ORBITAL FACTORY 2 (OF-2)
1 45113U 19071C   22198.48924536  .00027290  00000+0  54127-3 0  9996
2 45113  51.6366 271.4403 0009632 289.8503  70.1446 15.46771664138022
M2 PATHFINDER           
1 45727U 20037E   22197.72612302  .00001576  00000+0  16050-3 0  9994
2 45727  97.7361  12.6549 0011641 303.9595  56.0456 14.92090207111197
NETSAT-4                
1 46504U 20068U   22197.79255641  .00002520  00000+0  18894-3 0  9996
2 46504  97.7262 137.5314 0010854 226.4610 133.5717 15.03550633 98451
NETSAT-3                
1 46505U 20068V   22197.80868222  .00002234  00000+0  16822-3 0  9995
2 46505  97.7268 137.4662 0008986 231.9222 128.1197 15.03516966 98460
NETSAT-1                
1 46506U 20068W   22197.82613913  .00002842  00000+0  21313-3 0  9999
2 46506  97.7251 137.4093 0007657 239.9379 120.1087 15.03465204 98464
NETSAT-2                
1 46507U 20068X   22197.76950909  .00003353  00000+0  25074-3 0  9998
2 46507  97.7235 137.3431 0007363 250.1716 109.8716 15.03448004 98402
SAI-1 NANOCONNECT-2     
1 47701U 21015C   22197.71629307  .00011907  00000+0  43970-3 0  9997
2 47701  97.4223 274.5116 0010560 359.7210   0.4022 15.27850839 76686
BEESAT-6                
1 47957U 21022AB  22198.52186539  .00007410  00000+0  47079-3 0  9991
2 47957  97.5296  97.5425 0021961  46.3578  77.4929 15.08933636 72333
SMOG-1                  
1 47964U 21022AJ  22197.72700948  .00008273  00000+0  50572-3 0  9996
2 47964  97.5278  97.8570 0019671  40.0442 320.2233 15.10351741 71308
MMSATS-1                
1 47976U 98067SJ  22198.52305647  .00024832  00000+0  30359-3 0  9998
2 47976  51.6395 173.7979 0002718  82.4224  20.8669 15.60255644 74951
BCCSAT-1                
1 48041U 21022AK  22198.39160458  .00006697  00000+0  42052-3 0  9995
2 48041  97.5281  98.0962 0016230  37.2079 323.0272 15.09494035 71350
BEESAT-5                
1 48083U 21022AM  22198.51177172  .00007362  00000+0  46572-3 0  9997
2 48083  97.5233  97.5350 0021843  46.1046  77.8870 15.09096206 71465
BEESAT-7                
1 48084U 21022AN  22198.19053295  .00007426  00000+0  47105-3 0  9995
2 48084  97.5252  97.2257 0021867  47.2629 107.8025 15.08994662 71003
BEESAT-8                
1 48085U 21022AP  22198.19189230  .00007225  00000+0  45941-3 0  9998
2 48085  97.5270  97.2238 0021801  47.8232 104.5779 15.08917212 71564
RAMSAT                  
1 48850U 98067SL  22197.64228801  .00098478  00000+0  65510-3 0  9992
2 48850  51.6360 168.0948 0002984  83.8194 276.3146 15.74628311 61925
BD-28                   
1 48867U 98067SN  22198.17386792  .00151367  00000+0  76572-3 0  9990
2 48867  51.6271 161.7982 0003156  65.4346 294.6984 15.80582123 60805
BINAR-1                 
1 49272U 98067SR  22197.97249865  .00114605  00000+0  73915-3 0  9999
2 49272  51.6316 170.2623 0006466  56.0042 304.1571 15.75255663 44316
MAYA-3                  
1 49273U 98067SS  22198.17756650  .00443784  89447-4  11502-2 0  9991
2 49273  51.6253 161.7718 0006059  73.6203 286.5471 15.94484619 44441
MAYA-4                  
1 49274U 98067ST  22197.97455012  .00382823  67083-4  11231-2 0  9994
2 49274  51.6283 163.4383 0006144  66.1777 293.9873 15.92156423 44401
CUAVA-1                 
1 49275U 98067SU  22198.37711789  .00210238  00000+0  93607-3 0  9995
2 49275  51.6305 164.3841 0008862  53.8202  76.1918 15.83109281 44378
BEIJING 1               
1 28890U 05043A   22198.46206254  .00000225  00000+0  54664-4 0  9997
2 28890  98.1224 320.3201 0016486  81.3665 278.9410 14.61467469891524
HJ-1A                   
1 33320U 08041A   22198.34683656  .00000428  00000+0  66109-4 0  9996
2 33320  97.6753 230.0018 0022010 131.8356 228.4746 14.77871106746806
HJ-1B                   
1 33321U 08041B   22198.36279193  .00000845  00000+0  12341-3 0  9997
2 33321  97.6932 233.6424 0034825 150.6342 209.6839 14.77782087746800
YAOGAN 4                
1 33446U 08061A   22198.44910572  .00000571  00000+0  87083-4 0  9991
2 33446  97.8177 137.6670 0017220  41.0920 319.1584 14.77408155734028
DEIMOS-1                
1 35681U 09041A   22198.37247040  .00000313  00000+0  57147-4 0  9990
2 35681  97.7118  47.9105 0002703 108.5786 251.5714 14.72073824696173
UK-DMC 2                
1 35683U 09041C   22198.34316643  .00000465  00000+0  82453-4 0  9991
2 35683  97.6995   9.8042 0001527 102.7541 257.3838 14.71440337695909
RISAT 1                 
1 38248U 12017A   22198.37800211  .00003538  00000+0  20910-3 0  9993
2 38248  97.5516 209.4226 0004974 138.4968 221.6641 15.12120886563367
DMC3-FM1                
1 40715U 15032A   22198.30668057  .00000414  00000+0  58494-4 0  9997
2 40715  97.8446  84.5356 0007313  66.8856 293.3118 14.82146685377718
DMC3-FM2                
1 40716U 15032B   22198.32933962  .00000416  00000+0  58807-4 0  9990
2 40716  97.8488  85.2151 0009275  68.4420 291.7780 14.82138523377720
DMC3-FM3                
1 40717U 15032C   22198.28437227  .00000416  00000+0  58709-4 0  9990
2 40717  97.8519  86.0938 0011187  66.0643 294.1735 14.82166557377718
NOAA 15                 
1 25338U 98030A   22198.51805956  .00000178  00000+0  92432-4 0  9991
2 25338  98.6423 227.6580 0009894 203.9058 156.1664 14.26151175257558
DMSP 5D-3 F15 (USA 147) 
1 25991U 99067A   22198.51477741  .00000117  00000+0  81870-4 0  9991
2 25991  99.0532 190.6055 0011194 102.0466  63.8456 14.16552986168045
METEOSAT-8 (MSG-1)      
1 27509U 02040B   22198.21880019  .00000121  00000+0  00000+0 0  9992
2 27509   8.0913  50.5019 0000356  56.1802 308.4552  1.00269906 72900
DMSP 5D-3 F16 (USA 172) 
1 28054U 03048A   22198.48151760 -.00000005  00000+0  21097-4 0  9996
2 28054  98.9888 189.4478 0006427 227.4594 285.2689 14.13676329967266
NOAA 18                 
1 28654U 05018A   22198.44777130  .00000159  00000+0  10964-3 0  9991
2 28654  98.9482 268.8587 0013334 244.5199 115.4594 14.12754106884302
METEOSAT-9 (MSG-2)      
1 28912U 05049B   22198.21967220  .00000113  00000+0  00000+0 0  9994
2 28912   6.0851  66.1238 0001596  10.0246 343.7118  1.00277667 60722
EWS-G1 (GOES 13)        
1 29155U 06018A   22197.87271774  .00000027  00000+0  00000+0 0  9998
2 29155   0.6724  96.8290 0004317  85.2077 127.9549  1.00272927 29021
DMSP 5D-3 F17 (USA 191) 
1 29522U 06050A   22198.50245503  .00000009  00000+0  27338-4 0  9992
2 29522  98.7659 212.9938 0009988 169.3348 190.8039 14.14103304810154
FENGYUN 3A              
1 32958U 08026A   22198.44118767  .00000068  00000+0  52950-4 0  9991
2 32958  98.5040 159.8504 0007756 301.2995  58.7421 14.18727968732586
FENGYUN 2E              
1 33463U 08066A   22197.65382146 -.00000219  00000+0  00000+0 0  9996
2 33463   5.9685  65.1468 0003069  12.0582 179.3194  1.00275422 49730
NOAA 19                 
1 33591U 09005A   22198.52332769  .00000167  00000+0  11496-3 0  9991
2 33591  99.1460 233.2890 0014961 103.1595 257.1246 14.12588760692695
GOES 14                 
1 35491U 09033A   22198.52479904 -.00000103  00000+0  00000+0 0  9992
2 35491   0.3885  95.1181 0013495 114.9490 169.5401  1.00272438 47816
METEOR-M 1              
1 35865U 09049A   22198.50434251  .00000074  00000+0  52169-4 0  9992
2 35865  98.5295 168.0079 0003166 121.7345 238.4142 14.22344628665969
DMSP 5D-3 F18 (USA 210) 
1 35951U 09057A   22198.48824576  .00000203  00000+0  13052-3 0  9998
2 35951  98.7233 177.1362 0011309   7.9788 352.1563 14.13526420657356
GOES 15                 
1 36411U 10008A   22198.48521701  .00000043  00000+0  00000+0 0  9999
2 36411   0.3607 100.8529 0002509  31.7816 208.9498  1.00275835 45325
COMS 1                  
1 36744U 10032A   22197.80552781 -.00000357  00000+0  00000+0 0  9991
2 36744   1.1470  92.4577 0001052  28.4278 231.8352  1.00272198 36735
FENGYUN 3B              
1 37214U 10059A   22198.41936119 -.00000005  00000+0  21443-4 0  9991
2 37214  99.0915 204.9240 0021192 271.0419  88.8338 14.14259745605193
SUOMI NPP               
1 37849U 11061A   22198.52032490  .00000066  00000+0  52283-4 0  9992
2 37849  98.7329 136.6569 0001125  89.3301  32.0796 14.19533800555455
FENGYUN 2F              
1 38049U 12002A   22197.58710672 -.00000370  00000+0  00000+0 0  9995
2 38049   3.8607  79.4808 0002206  12.3052 165.9047  1.00263646 38538
METEOSAT-10 (MSG-3)     
1 38552U 12035B   22198.28413688  .00000051  00000+0  00000+0 0  9990
2 38552   1.5653  42.9153 0000827 109.6292 254.4060  1.00279895 36871
METOP-B                 
1 38771U 12049A   22198.46273856  .00000078  00000+0  55803-4 0  9994
2 38771  98.6941 257.7691 0000994  57.3224 320.4928 14.21495966509994
FENGYUN 3C              
1 39260U 13052A   22198.37350380  .00000076  00000+0  59487-4 0  9991
2 39260  98.4524 224.9711 0010875 182.6531 177.4587 14.15932010456153
METEOR-M 2              
1 40069U 14037A   22198.39569427  .00000003  00000+0  20584-4 0  9996
2 40069  98.4302 214.8332 0004646 228.4060 131.6725 14.20713218416119
HIMAWARI-8              
1 40267U 14060A   22198.12056233 -.00000287  00000+0  00000+0 0  9990
2 40267   0.0176 226.8588 0000845 258.5710 353.5376  1.00272861 28514
FENGYUN 2G              
1 40367U 14090A   22198.37387451 -.00000315  00000+0  00000+0 0  9992
2 40367   2.0097  89.2170 0000993 297.2939 142.7483  1.00279827 27698
METEOSAT-11 (MSG-4)     
1 40732U 15034A   22198.39771720 -.00000014  00000+0  00000+0 0  9991
2 40732   0.3467  63.0309 0001576  21.7734 354.0269  1.00262285 25677
ELEKTRO-L 2             
1 41105U 15074A   22198.13580779 -.00000130  00000+0  00000+0 0  9993
2 41105   3.0609  87.8122 0002000  61.0408 180.4277  1.00270424 24162
HIMAWARI-9              
1 41836U 16064A   22198.52560353 -.00000287  00000+0  00000+0 0  9996
2 41836   0.0199  47.7937 0001396  92.1190 125.3652  1.00270295 20957
GOES 16                 
1 41866U 16071A   22197.81091288 -.00000260  00000+0  00000+0 0  9995
2 41866   0.0552 237.1448 0000741 272.4087   1.7734  1.00270364 20760
